SKYKRAFT-1C             
1 55061U 23001BE  26068.70960345  .00004538  00000+0  18809-3 0  9997
2 55061  97.3326 124.5476 0011974 132.0782 228.1477 15.24327539176324
STARLINK-32586          
1 61975U 24210S   26068.32436363  .00036536  00000+0  13301-2 0  9991
2 61975  43.0023 181.9245 0002723 285.0175  75.0375 15.27591735 74827
